{"type":"FeatureCollection","features":[{"type":"Feature","properties":{"prefix":"1","country":"HU","source":"Eurostat GISCO LAU 2024 + Magyar Posta Partner Extra","area_km2":547.65},"geometry":{"type":"Polygon","coordinates":[[[19.2805,47.4361],[19.2185,47.4135],[19.2178,47.4009],[19.1794,47.3609],[19.1405,47.3494],[19.0976,47.379],[19.0816,47.4045],[19.0442,47.3859],[18.9937,47.3867],[18.9624,47.3726],[18.9515,47.394],[18.957,47.4186],[18.9697,47.4269],[18.9778,47.4697],[18.9471,47.4824],[18.9348,47.5375],[18.9363,47.5482],[18.9294,47.5718],[18.9753,47.5741],[18.997,47.5858],[19.0292,47.606],[19.0767,47.6069],[19.099,47.613],[19.138,47.5997],[19.1744,47.5642],[19.1909,47.5389],[19.245,47.5369],[19.251,47.53],[19.2648,47.5089],[19.3183,47.5153],[19.3142,47.4943],[19.3345,47.4632],[19.33,47.4598],[19.3256,47.4219],[19.3157,47.4154],[19.2805,47.4361]]]}},{"type":"Feature","properties":{"prefix":"2","country":"HU","source":"Eurostat GISCO LAU 2024 + Magyar Posta Partner Extra","area_km2":11308.7},"geometry":{"type":"Polygon","coordinates":[[[19.164,47.0956],[19.1321,47.0721],[19.101,47.0647],[19.0933,47.0448],[19.0875,47.0434],[19.0685,47.0354],[19.0183,47.0541],[18.9564,47.064],[18.9659,47.029],[18.9571,47.0029],[18.9507,46.9962],[18.9655,46.9367],[18.9583,46.906],[18.9463,46.8898],[18.9343,46.8785],[18.9262,46.865],[18.9251,46.8572],[18.8882,46.8562],[18.8667,46.8316],[18.8354,46.8047],[18.7949,46.7875],[18.7622,46.8261],[18.7544,46.8377],[18.7211,46.8785],[18.7086,46.8981],[18.706,46.9474],[18.6511,46.932],[18.631,46.9451],[18.6128,46.9921],[18.6388,47.0013],[18.5931,47.0369],[18.5827,47.0535],[18.6613,47.0759],[18.6572,47.1118],[18.7004,47.1248],[18.6359,47.1395],[18.6049,47.1647],[18.5537,47.1494],[18.538,47.17],[18.591,47.2049],[18.6318,47.2274],[18.6176,47.2486],[18.6434,47.2577],[18.6473,47.2661],[18.6077,47.2786],[18.6075,47.297],[18.5859,47.3355],[18.6262,47.3489],[18.6238,47.3675],[18.6814,47.4047],[18.7096,47.3881],[18.7257,47.4128],[18.6906,47.4406],[18.6941,47.4619],[18.635,47.4497],[18.608,47.4756],[18.5849,47.4717],[18.5672,47.4792],[18.5542,47.4758],[18.5473,47.4533],[18.5043,47.4602],[18.463,47.4605],[18.4295,47.4854],[18.4276,47.4859],[18.399,47.452],[18.3779,47.4602],[18.351,47.4396],[18.3724,47.4177],[18.3116,47.3991],[18.2453,47.4367],[18.2398,47.4582],[18.1885,47.4763],[18.1793,47.4446],[18.1182,47.4453],[18.1108,47.4068],[18.0918,47.3907],[18.08,47.3742],[18.0878,47.3585],[18.0534,47.3512],[18.0357,47.3343],[18.029,47.3341],[17.9626,47.333],[17.9612,47.3335],[17.9612,47.3477],[17.9269,47.3627],[17.9487,47.3789],[17.8839,47.3896],[17.8764,47.4017],[17.8932,47.4296],[17.8851,47.4484],[17.8703,47.4579],[17.8881,47.4777],[17.9095,47.5059],[17.8887,47.5269],[17.8867,47.5511],[17.9223,47.5436],[17.9282,47.5559],[17.9119,47.5851],[17.9331,47.6162],[17.8918,47.6311],[17.899,47.6747],[17.8917,47.6817],[17.9016,47.7041],[17.8939,47.7395],[17.9451,47.745],[17.969339068758472,47.75625385335215],[17.970469780337382,47.75630303685813],[18.11262007600007,47.76248626700006],[18.235920044000096,47.753882141000034],[18.27302372200006,47.75625925700008],[18.315688370282142,47.76795667804458],[18.347851196000107,47.77677480100006],[18.35560032418691,47.77738307433337],[18.468370086047535,47.786235017066865],[18.547048707230267,47.79241095144474],[18.552593221000024,47.79284617200001],[18.597448364000115,47.79064992300003],[18.633828572000084,47.77982371100008],[18.66369755000011,47.77589630100003],[18.69284305800005,47.77796335900008],[18.717234334000068,47.78811777800003],[18.750307251000038,47.813620097000054],[18.753899578969012,47.815416261088],[18.767670532000068,47.82230173800012],[18.790304810000123,47.82633249900003],[18.797522863500035,47.828051422895335],[18.814916380000057,47.83219355500002],[18.81645308500012,47.83255950900009],[18.797522863500035,47.84185923465845],[18.77800581900007,47.851447245000045],[18.748756958000115,47.870722555000086],[18.742245727000068,47.889455262000055],[18.744726196000045,47.910513408],[18.754751424000062,47.95180287700002],[18.751444133000064,47.96335256000005],[18.744519490000073,47.96735748300004],[18.743175903000093,47.97105234800004],[18.756198364000056,47.981826885000075],[18.765293416000105,47.98539255800004],[18.784723754000083,47.98761464500005],[18.794232218000076,47.993144023000056],[18.8034407248149,48.00597904593786],[18.819863257907667,48.02886914019323],[18.821000610000056,48.03045440700008],[18.8384672440001,48.04001454700007],[18.933595170000075,48.05434889200002],[18.944973321031675,48.05606340795415],[18.981817668000133,48.061615296000056],[18.996493774000044,48.06621449800009],[19.001267806400133,48.06606238427094],[19.019016511000103,48.065496862000046],[19.028340053878143,48.06519978833921],[19.03866174300009,48.06487091100003],[19.09850305200007,48.07073618600002],[19.126591532862253,48.06843644160778],[19.154788872821488,48.06612778437689],[19.222526489000046,48.06058176700007],[19.233481893000118,48.06208038400008],[19.293219849000053,48.08776357100005],[19.317348148379978,48.0874217842158],[19.428198690000045,48.08585154300003],[19.448615982093735,48.09556749350231],[19.4617,48.0831],[19.4554,48.0625],[19.4625,48.0544],[19.4479,48.029],[19.4359,48.0039],[19.4452,48.0033],[19.4825,47.9937],[19.5442,47.9692],[19.548,47.9649],[19.5238,47.9529],[19.5094,47.9403],[19.4988,47.9203],[19.4928,47.9083],[19.4619,47.9096],[19.4577,47.9036],[19.4739,47.8767],[19.468,47.8538],[19.4858,47.8364],[19.5131,47.798],[19.5436,47.7729],[19.5873,47.7467],[19.5709,47.7349],[19.6067,47.7119],[19.6037,47.7015],[19.5914,47.6879],[19.6072,47.6674],[19.6074,47.6614],[19.612,47.657],[19.6444,47.6461],[19.6663,47.5885],[19.6546,47.551],[19.6527,47.5478],[19.7027,47.5172],[19.7365,47.5379],[19.7773,47.5388],[19.7899,47.5314],[19.747,47.4889],[19.7588,47.4811],[19.7896,47.467],[19.853,47.4148],[19.926,47.3811],[19.9379,47.3777],[19.9408,47.3769],[19.9651,47.3672],[20.0176,47.3039],[20.0006,47.2776],[19.9883,47.2531],[20.0338,47.2428],[20.0658,47.2247],[20.085,47.208],[20.0981,47.1813],[20.071,47.1562],[20.0472,47.1252],[20.0758,47.0801],[20.0818,47.0707],[20.1084,47.0394],[20.0947,47.0074],[20.0701,47.0187],[20.0265,47.0073],[19.9827,46.983],[19.9836,46.9628],[19.9322,46.9732],[19.8766,46.9979],[19.8439,46.948],[19.8277,46.9449],[19.7798,46.9487],[19.6823,46.9992],[19.6368,47.038],[19.6239,47.0748],[19.5872,47.1209],[19.5614,47.1073],[19.5071,47.1187],[19.4911,47.0883],[19.4744,47.055],[19.4292,47.0636],[19.3858,47.0381],[19.333,47.0269],[19.3192,47.0127],[19.2953,47.0359],[19.314,47.0668],[19.3478,47.0932],[19.3344,47.1026],[19.3119,47.1204],[19.269,47.1341],[19.2368,47.1308],[19.2088,47.0889],[19.164,47.0956]],[[18.8213,47.8188],[18.797522863500035,47.817606303866356],[18.753899578969012,47.815416261088],[18.8213,47.8188]],[[18.767087474727056,47.92214270064061],[18.7623,47.9103],[18.7737,47.9385],[18.767087474727056,47.92214270064061]],[[18.674492277066367,47.76795667804458],[18.7249,47.7887],[18.718909919096056,47.786235017066865],[18.674492277066367,47.76795667804458]],[[18.0835,47.7565],[18.128830282269735,47.749561691489326],[18.128068185054396,47.74967833902229],[18.0835,47.7565]],[[19.1405,47.3494],[19.1794,47.3609],[19.2178,47.4009],[19.2185,47.4135],[19.2805,47.4361],[19.3157,47.4154],[19.3256,47.4219],[19.33,47.4598],[19.3345,47.4632],[19.3142,47.4943],[19.3183,47.5153],[19.2648,47.5089],[19.251,47.53],[19.245,47.5369],[19.1909,47.5389],[19.1744,47.5642],[19.138,47.5997],[19.099,47.613],[19.0767,47.6069],[19.0292,47.606],[18.997,47.5858],[18.9753,47.5741],[18.9294,47.5718],[18.9363,47.5482],[18.9348,47.5375],[18.9471,47.4824],[18.9778,47.4697],[18.9697,47.4269],[18.957,47.4186],[18.9515,47.394],[18.9624,47.3726],[18.9937,47.3867],[19.0442,47.3859],[19.0816,47.4045],[19.0976,47.379],[19.1405,47.3494]]]}},{"type":"Feature","properties":{"prefix":"3","country":"HU","source":"Eurostat GISCO LAU 2024 + Magyar Posta Partner Extra","area_km2":12107.88},"geometry":{"type":"Polygon","coordinates":[[[20.1122,47.5533],[20.0454,47.5707],[20.0053,47.5939],[20.0169,47.6121],[20.0038,47.6584],[19.9757,47.674],[19.9118,47.655],[19.8847,47.6655],[19.8747,47.6658],[19.8709,47.631],[19.8539,47.6256],[19.8099,47.5983],[19.7579,47.6212],[19.7256,47.6134],[19.7038,47.5848],[19.6663,47.5885],[19.6444,47.6461],[19.612,47.657],[19.6074,47.6614],[19.6072,47.6674],[19.5914,47.6879],[19.6037,47.7015],[19.6067,47.7119],[19.5709,47.7349],[19.5873,47.7467],[19.5436,47.7729],[19.5131,47.798],[19.4858,47.8364],[19.468,47.8538],[19.4739,47.8767],[19.4577,47.9036],[19.4619,47.9096],[19.4928,47.9083],[19.4988,47.9203],[19.5094,47.9403],[19.5238,47.9529],[19.548,47.9649],[19.5442,47.9692],[19.4825,47.9937],[19.4452,48.0033],[19.4359,48.0039],[19.4479,48.029],[19.4625,48.0544],[19.4554,48.0625],[19.4617,48.0831],[19.448615982093735,48.09556749350231],[19.48173547300007,48.11132802300004],[19.483285767000098,48.11649566600006],[19.483802531000038,48.12176666300009],[19.483285767000098,48.12719268800005],[19.48173547300007,48.13267039000006],[19.481425415000103,48.13334218300004],[19.48121870900013,48.13396230100001],[19.481425415000103,48.13442738900004],[19.48173547300007,48.134892477000065],[19.493621053000112,48.15070546500006],[19.50302616400006,48.18941111200006],[19.513981567000144,48.20395802900002],[19.53124149500013,48.21065012700005],[19.58365496089082,48.21996971184751],[19.62322554500011,48.22700571700007],[19.6338708910001,48.226773173000126],[19.643896118000043,48.22480946899999],[19.655264933000126,48.21834991500005],[19.67696903400011,48.200392354000044],[19.686994263000145,48.1969041950001],[19.733089640000088,48.20289866200004],[19.756550740000137,48.20031484000005],[19.77432743300008,48.18589711600002],[19.774844197000107,48.17607859300004],[19.76915979000009,48.16744862900002],[19.76667932100011,48.15899953200001],[19.77608443200006,48.149516907000034],[19.785592895000036,48.14869008400011],[19.821663045000037,48.157914327000114],[19.84626102700011,48.15266916899999],[19.884294881000073,48.129621480000125],[19.89982830984317,48.12564152210733],[19.901495007241337,48.12521448275036],[19.905068806000088,48.12429880800006],[19.92863326000011,48.13008656800004],[19.946209627292518,48.14107179760633],[19.948693483782048,48.14262420791914],[19.97390181500009,48.15837941500003],[19.99694950400007,48.16791371700002],[20.03237022865982,48.17532511832105],[20.0349833570001,48.1758718870001],[20.038302702000124,48.177233057000095],[20.07263398446328,48.191311353735735],[20.078081502000117,48.193545228000076],[20.096995077000145,48.1984286510001],[20.105263305000108,48.20279530900011],[20.11260135900008,48.21173533200003],[20.112967209271652,48.21293642527638],[20.11807906100009,48.229718730000016],[20.12200646900004,48.23674672500003],[20.13451216700014,48.24666860000012],[20.143090454000088,48.24780548100004],[20.15332238700006,48.24527333600004],[20.170892375000022,48.24403310200002],[20.18763553900007,48.24899403900007],[20.21781457500009,48.26759755500011],[20.22908003700013,48.27090484700001],[20.22934200933592,48.27081661796507],[20.249027140000067,48.26418690999999],[20.260292602000106,48.255892843000126],[20.27238488800009,48.252456360000096],[20.2952258710001,48.26041453100005],[20.324268026000112,48.27994822300006],[20.349279419000084,48.30547638000009],[20.370156697000084,48.33433766700004],[20.409017374000115,48.4137126670001],[20.420592895000084,48.42924143500004],[20.435579060000038,48.4423930870001],[20.46596804300009,48.46379039200012],[20.46823856600011,48.46538909900006],[20.47205623349853,48.46918474139479],[20.481674439000074,48.47874745700007],[20.482501261000095,48.48226145500003],[20.482914673000096,48.485827128000025],[20.48281132000008,48.48936696400007],[20.4821912030001,48.49288096200003],[20.48022749800009,48.51021840400004],[20.480537557000076,48.518538310000096],[20.481674439000074,48.52608306900005],[20.510509888000115,48.53378285800004],[20.56182732882777,48.53609214258079],[20.572521606000066,48.536573385000096],[20.594760115120085,48.53998738184913],[20.6085820070521,48.54210928198411],[20.784084920000055,48.569052023000026],[20.80031132000005,48.569232890000066],[20.815814250000074,48.563806864000085],[20.84547652100011,48.545823466000016],[20.859945922000065,48.54331716000003],[20.891365193000098,48.54109507200012],[20.945832154000072,48.51897756000001],[20.981488891000083,48.516858826000046],[21.006500285000072,48.518150737],[21.035955851000068,48.51463673900004],[21.06386112400014,48.506239319000045],[21.08401493300005,48.49301015300007],[21.10933638500012,48.4891085820001],[21.186747680000053,48.51370656400009],[21.219923950000066,48.51871917700005],[21.238010702000082,48.513448182000005],[21.25041304500013,48.506497701000015],[21.261781861000117,48.503190410000016],[21.27656132000004,48.50871978800002],[21.28824019400011,48.51993357400006],[21.29392460100007,48.530578918000074],[21.302296183000124,48.539906515],[21.319685711780217,48.54673811556048],[21.32182987400006,48.54758046500008],[21.338573038000106,48.549854228000086],[21.37267948400006,48.55034515400003],[21.424562622000053,48.5612747200001],[21.43913537600011,48.55832916300001],[21.472725057000048,48.544996643999994],[21.490811809000064,48.540268250000096],[21.4993900960001,48.535074769000076],[21.506004679000085,48.52649648000006],[21.515099732000067,48.5071178190001],[21.52181766700008,48.500089824000085],[21.537734008000115,48.49523223900006],[21.57463098100004,48.495568136000045],[21.591684204000074,48.49301015300007],[21.600365844000123,48.481641337000056],[21.613388305000058,48.440351868000064],[21.62155318200007,48.42965484600005],[21.677570434000103,48.37234568300006],[21.701238240000123,48.35394887300008],[21.72769657400002,48.34090057400003],[21.759012492000124,48.333769226000086],[21.78939823400009,48.335526225000066],[21.795604981395833,48.337641598539754],[21.82850830152427,48.348855654522666],[21.84117801900007,48.353173727000055],[21.884276164000056,48.35746287100004],[21.905858120115216,48.365693277819155],[21.91476525900015,48.36909006800009],[21.929338012000102,48.37291412400002],[21.943507990011202,48.3734051627936],[21.9815312100001,48.374722799000025],[21.999928019000095,48.37896026700007],[22.01801477100011,48.37973541300009],[22.07785607900007,48.37580800400012],[22.096459595000113,48.37942535399999],[22.101173762653623,48.38191493686372],[22.1211,48.3783],[22.1279,48.3608],[22.1042,48.3279],[22.0808,48.3086],[22.0673,48.2995],[22.0624,48.297],[22.0521,48.3011],[22.0009,48.2976],[21.9676,48.2751],[21.9624,48.2693],[21.9431,48.2557],[21.8518,48.2393],[21.8383,48.2261],[21.8301,48.2442],[21.7929,48.2104],[21.7546,48.1913],[21.7112,48.1931],[21.6701,48.1922],[21.6445,48.1943],[21.5843,48.2086],[21.57,48.2001],[21.5355,48.1968],[21.5176,48.1784],[21.486,48.1811],[21.4738,48.1676],[21.4396,48.1719],[21.4254,48.1547],[21.429,48.1426],[21.4148,48.1197],[21.4427,48.0965],[21.4621,48.0714],[21.4375,48.0682],[21.4233,48.043],[21.4216,48.0443],[21.4092,48.0424],[21.413,48.0339],[21.3629,48.0324],[21.328,48.0227],[21.3001,48.0287],[21.2666,48.0385],[21.2603,48.0583],[21.2383,48.05],[21.2052,48.0249],[21.1704,48.0276],[21.1638,48.0439],[21.1278,48.0457],[21.079,48.0022],[21.1021,47.971],[21.1222,47.9618],[21.1057,47.92],[21.0917,47.896],[21.0821,47.8651],[21.0614,47.8594],[21.0585,47.846],[21.0682,47.8363],[21.0786,47.8247],[21.0654,47.7996],[21.0531,47.774],[20.9965,47.7497],[21.0024,47.7423],[20.996,47.7203],[20.9519,47.7167],[20.934,47.6984],[20.8854,47.684],[20.828,47.659],[20.8306,47.669],[20.8012,47.6817],[20.7717,47.6545],[20.7173,47.6356],[20.7096,47.6053],[20.698,47.5925],[20.6652,47.5699],[20.6677,47.5549],[20.6124,47.5344],[20.6011,47.5302],[20.541,47.5049],[20.5188,47.4907],[20.5033,47.4688],[20.4492,47.4511],[20.4461,47.4376],[20.4177,47.423],[20.3788,47.425],[20.3798,47.4454],[20.3369,47.4425],[20.2876,47.487],[20.297,47.5282],[20.2352,47.5623],[20.2086,47.6072],[20.1379,47.5995],[20.1023,47.5899],[20.1343,47.5655],[20.1122,47.5533]]]}},{"type":"Feature","properties":{"prefix":"4","country":"HU","source":"Eurostat GISCO LAU 2024 + Magyar Posta Partner Extra","area_km2":11959.17},"geometry":{"type":"Polygon","coordinates":[[[21.5672,46.9992],[21.5483,46.9591],[21.4842,46.9421],[21.4443,46.9557],[21.4237,46.9429],[21.4378,46.9702],[21.3688,46.979],[21.3555,46.9797],[21.3552,46.9798],[21.2917,46.999],[21.2338,47.0245],[21.232,47.0594],[21.2884,47.0816],[21.3064,47.1107],[21.3009,47.1507],[21.243,47.1522],[21.1687,47.1704],[21.1254,47.1748],[21.1218,47.1765],[21.1025,47.1866],[21.0681,47.2073],[21.0516,47.1904],[21.02,47.2254],[20.9921,47.2323],[21.0167,47.2516],[21.03,47.3544],[21.0196,47.3789],[21.0054,47.4304],[20.9939,47.4732],[21.0081,47.4907],[20.9841,47.5201],[20.9945,47.5671],[20.9467,47.5954],[20.8854,47.5821],[20.8436,47.5965],[20.8262,47.6286],[20.828,47.659],[20.8854,47.684],[20.934,47.6984],[20.9519,47.7167],[20.996,47.7203],[21.0024,47.7423],[20.9965,47.7497],[21.0531,47.774],[21.0654,47.7996],[21.0786,47.8247],[21.0682,47.8363],[21.0585,47.846],[21.0614,47.8594],[21.0821,47.8651],[21.0917,47.896],[21.1057,47.92],[21.1222,47.9618],[21.1021,47.971],[21.079,48.0022],[21.1278,48.0457],[21.1638,48.0439],[21.1704,48.0276],[21.2052,48.0249],[21.2383,48.05],[21.2603,48.0583],[21.2666,48.0385],[21.3001,48.0287],[21.328,48.0227],[21.3629,48.0324],[21.413,48.0339],[21.4092,48.0424],[21.4216,48.0443],[21.4233,48.043],[21.4375,48.0682],[21.4621,48.0714],[21.4427,48.0965],[21.4148,48.1197],[21.429,48.1426],[21.4254,48.1547],[21.4396,48.1719],[21.4738,48.1676],[21.486,48.1811],[21.5176,48.1784],[21.5355,48.1968],[21.57,48.2001],[21.5843,48.2086],[21.6445,48.1943],[21.6701,48.1922],[21.7112,48.1931],[21.7546,48.1913],[21.7929,48.2104],[21.8301,48.2442],[21.8383,48.2261],[21.8518,48.2393],[21.9431,48.2557],[21.9624,48.2693],[21.9676,48.2751],[22.0009,48.2976],[22.0521,48.3011],[22.0624,48.297],[22.0673,48.2995],[22.0808,48.3086],[22.1042,48.3279],[22.1279,48.3608],[22.1211,48.3783],[22.101173762653623,48.38191493686372],[22.11392622900007,48.3886495980001],[22.13283980300011,48.40479848299999],[22.15650760900013,48.40205963100006],[22.158263205000083,48.40222218700008],[22.159298136000103,48.402318014000016],[22.16922001100008,48.40952687600007],[22.181630538844118,48.4127958950983],[22.20198286900009,48.41815684000004],[22.236089315000072,48.41528879800005],[22.271849406000086,48.403454895000024],[22.25696659300013,48.373224182000016],[22.25675988800006,48.357282003000066],[22.283291250673237,48.358350213967455],[22.28435510300008,48.35839304700009],[22.291279744000065,48.35756622400005],[22.29178336156565,48.35699615691571],[22.29872115100008,48.34914296500007],[22.29872115100008,48.33932444300011],[22.296447388000047,48.32780059800008],[22.29737756300011,48.31400299100004],[22.30812626100004,48.293694153000004],[22.357115519000047,48.24310292600005],[22.363626749000105,48.23871042900005],[22.370861450000064,48.2373926800001],[22.378612915000076,48.23886545900011],[22.386467732000114,48.24305125000005],[22.390498495000116,48.2443431600001],[22.394529256000112,48.2447565720001],[22.39876672400007,48.2443431600001],[22.418403768000104,48.23896881100005],[22.434216756000097,48.23674672500003],[22.449719686000094,48.23767690000007],[22.469046672000047,48.24413645400004],[22.4732841390001,48.244498190000044],[22.477418254000042,48.24392974900009],[22.478618315374078,48.243529728542065],[22.481449015000123,48.24258616200002],[22.555759725000115,48.17716379900004],[22.568885539000092,48.15651906300003],[22.58304488100012,48.12481557300002],[22.60009810300005,48.10112192800007],[22.605472453000118,48.09703949000006],[22.60805627400012,48.096832784000114],[22.621182088000097,48.10176788400007],[22.62870738223699,48.10176788400007],[22.693219035000055,48.10176788400007],[22.698274055939535,48.10288254452779],[22.71161584500007,48.10582448400005],[22.72856571400007,48.11313669900004],[22.745722290000117,48.11628896100011],[22.762052043000068,48.10926096600009],[22.765566040000124,48.1045325730001],[22.801429484000067,48.09096750900004],[22.830988403000106,48.0724415080001],[22.84432092300011,48.0610468550001],[22.85475956200014,48.047300924000055],[22.8615808510001,48.02838735000002],[22.857963501000114,48.01802622600009],[22.851348918000042,48.008801982000094],[22.84948856600002,47.993144023000056],[22.83978608362887,47.985058621118895],[22.8324353430001,47.97893300400007],[22.840806925000066,47.96678904300008],[22.877600546000053,47.94673858700013],[22.861167440000088,47.93381947800002],[22.836052693000084,47.90245188400009],[22.819722941000123,47.892323304000044],[22.779622029000052,47.88229807500004],[22.763602335000087,47.87475331700007],[22.752853637000072,47.86123993000011],[22.75326705000009,47.852687480000085],[22.75833134000007,47.846227926000026],[22.760295044000088,47.83891571100004],[22.75182010900008,47.82767608600007],[22.745825643000046,47.82498891200005],[22.724224894000088,47.82349029500004],[22.70386438000014,47.817185771000126],[22.691668741000058,47.81070037900007],[22.66696740700013,47.78878957100001],[22.654490822449826,47.781438085129054],[22.637718547000077,47.77155548100005],[22.601234985000076,47.76093597500004],[22.562994426000074,47.75721527200004],[22.52847456900011,47.76103932700006],[22.454370565000147,47.78739430800003],[22.43844345813581,47.78488726363643],[22.42367476400011,47.782562562000024],[22.410049526900227,47.74962053123515],[22.407345012000093,47.74308176699999],[22.395872843000063,47.73569203699999],[22.38264367700009,47.732023011000095],[22.368277628000072,47.73117034900007],[22.322078898000115,47.73587290500005],[22.309366495000063,47.73504608200001],[22.291589803000136,47.73070526100004],[22.27308964000011,47.72375478200006],[22.261927024351355,47.71599169027495],[22.26172082500011,47.71584828800009],[22.23981001800007,47.69347239200003],[22.2321619060001,47.6882530730001],[22.227303022344202,47.685868071808876],[22.215212036000082,47.679933166000055],[22.20787398200008,47.67373199500007],[22.20415327900008,47.66629058900013],[22.20074263500007,47.647945455000055],[22.19764204900011,47.639315491000005],[22.172837361000063,47.6153893030001],[22.16984012900005,47.60877472],[22.169116658000064,47.60138499],[22.167608011000112,47.59486230700007],[22.167359660000074,47.59378855400003],[22.162088663000134,47.58624379500007],[22.154177334000053,47.582212640000066],[22.14854943800006,47.5793449910001],[22.099560180000054,47.57094757200012],[22.09287562538959,47.56754412137779],[22.072631058973776,47.557236571184575],[22.03744510900009,47.53932159400004],[22.007886189000146,47.51741078700009],[21.988869263000083,47.492941997000045],[21.991453084000085,47.46180694600007],[22.00023807800008,47.42718373600006],[22.00158166500003,47.39382659900009],[21.991989915220554,47.380563779999434],[21.9815312100001,47.36610219400008],[21.93698612500009,47.35716217100004],[21.919002726000087,47.349669088],[21.900812622000075,47.33574228900004],[21.862158651000072,47.29742421500002],[21.856060831000093,47.28574534100004],[21.84458866400007,47.24993357300009],[21.839317668000064,47.24083852200003],[21.827742147000095,47.226007386000006],[21.823608033000085,47.21492279100009],[21.82329797300011,47.20332143200004],[21.82567508900013,47.19427805600007],[21.825985148000115,47.18505381300007],[21.819887329000068,47.172728984000045],[21.8155170070036,47.1685340140072],[21.8115157470001,47.164693298000046],[21.78939823400009,47.15030141300004],[21.779889770000096,47.14074127200003],[21.77544559800009,47.13167205800006],[21.770484659000147,47.114024557000064],[21.764441482922372,47.10609869836592],[21.76376672400002,47.10521372600009],[21.743509562000014,47.091596985000095],[21.694210246000125,47.0691694130001],[21.67188602700014,47.05472585100007],[21.650480128761973,47.037170749366055],[21.65009478187713,47.03685472414476],[21.632818644000054,47.022686463000056],[21.634269538000098,47.01942195100004],[21.634882188558702,47.01804348737226],[21.6263,47.0166],[21.6185,47.0051],[21.5692,47.0028],[21.5672,46.9992]]]}},{"type":"Feature","properties":{"prefix":"5","country":"HU","source":"Eurostat GISCO LAU 2024 + Magyar Posta Partner Extra","area_km2":11102.58},"geometry":{"type":"Polygon","coordinates":[[[20.981488891000083,46.2488577270001],[20.96174849500011,46.248340963000075],[20.924438110000068,46.2595547480001],[20.906558065000098,46.26219024700002],[20.899736775000065,46.26069163000004],[20.89632381388417,46.25936970850003],[20.88506066900007,46.25500722300008],[20.875138794000065,46.25438710500002],[20.866973917000053,46.25712595700004],[20.863183501918403,46.25936970850003],[20.84899051900007,46.26777130200004],[20.839688762000037,46.27107859400006],[20.819638306000087,46.27169871000011],[20.7986576750001,46.26761627200001],[20.7873693330001,46.26339038000005],[20.778503866000108,46.26007151300006],[20.77728654829559,46.25936970850003],[20.75867922917326,46.25936970850003],[20.7756,46.2759],[20.7487,46.2902],[20.7616,46.3446],[20.7543,46.3602],[20.7378,46.3836],[20.6932,46.3791],[20.684,46.3546],[20.6827,46.3511],[20.596,46.3599],[20.5489,46.3913],[20.5829,46.4082],[20.5825,46.4425],[20.6051,46.4542],[20.6002,46.48],[20.6094,46.5136],[20.6106,46.537],[20.579,46.5682],[20.5767,46.6317],[20.5754,46.6647],[20.59,46.6812],[20.5846,46.7309],[20.5959,46.7596],[20.5628,46.776],[20.5218,46.773],[20.4849,46.7923],[20.4535,46.8113],[20.4243,46.8035],[20.4247,46.7991],[20.403,46.7885],[20.3523,46.7841],[20.3356,46.7631],[20.2907,46.7675],[20.2648,46.7922],[20.2308,46.7986],[20.2082,46.7823],[20.1752,46.7545],[20.1344,46.7724],[20.0817,46.7877],[20.0612,46.8064],[20.0338,46.7969],[20.0037,46.8221],[20.0432,46.8369],[20.1147,46.8426],[20.0856,46.8745],[20.1233,46.8975],[20.1596,46.919],[20.1318,46.9609],[20.1391,46.9837],[20.0947,47.0074],[20.1084,47.0394],[20.0818,47.0707],[20.0758,47.0801],[20.0472,47.1252],[20.071,47.1562],[20.0981,47.1813],[20.085,47.208],[20.0658,47.2247],[20.0338,47.2428],[19.9883,47.2531],[20.0006,47.2776],[20.0176,47.3039],[19.9651,47.3672],[19.9408,47.3769],[19.9379,47.3777],[19.926,47.3811],[19.853,47.4148],[19.7896,47.467],[19.7588,47.4811],[19.747,47.4889],[19.7899,47.5314],[19.7773,47.5388],[19.7365,47.5379],[19.7027,47.5172],[19.6527,47.5478],[19.6546,47.551],[19.6663,47.5885],[19.7038,47.5848],[19.7256,47.6134],[19.7579,47.6212],[19.8099,47.5983],[19.8539,47.6256],[19.8709,47.631],[19.8747,47.6658],[19.8847,47.6655],[19.9118,47.655],[19.9757,47.674],[20.0038,47.6584],[20.0169,47.6121],[20.0053,47.5939],[20.0454,47.5707],[20.1122,47.5533],[20.1343,47.5655],[20.1023,47.5899],[20.1379,47.5995],[20.2086,47.6072],[20.2352,47.5623],[20.297,47.5282],[20.2876,47.487],[20.3369,47.4425],[20.3798,47.4454],[20.3788,47.425],[20.4177,47.423],[20.4461,47.4376],[20.4492,47.4511],[20.5033,47.4688],[20.5188,47.4907],[20.541,47.5049],[20.6011,47.5302],[20.6124,47.5344],[20.6677,47.5549],[20.6652,47.5699],[20.698,47.5925],[20.7096,47.6053],[20.7173,47.6356],[20.7717,47.6545],[20.8012,47.6817],[20.8306,47.669],[20.828,47.659],[20.8262,47.6286],[20.8436,47.5965],[20.8854,47.5821],[20.9467,47.5954],[20.9945,47.5671],[20.9841,47.5201],[21.0081,47.4907],[20.9939,47.4732],[21.0054,47.4304],[21.0196,47.3789],[21.03,47.3544],[21.0167,47.2516],[20.9921,47.2323],[21.02,47.2254],[21.0516,47.1904],[21.0681,47.2073],[21.1025,47.1866],[21.1218,47.1765],[21.1254,47.1748],[21.1687,47.1704],[21.243,47.1522],[21.3009,47.1507],[21.3064,47.1107],[21.2884,47.0816],[21.232,47.0594],[21.2338,47.0245],[21.2917,46.999],[21.3552,46.9798],[21.3555,46.9797],[21.3688,46.979],[21.4378,46.9702],[21.4237,46.9429],[21.4443,46.9557],[21.4842,46.9421],[21.5483,46.9591],[21.5672,46.9992],[21.5692,47.0028],[21.6185,47.0051],[21.6263,47.0166],[21.634882188558702,47.01804348737226],[21.636642700000095,47.01408233700003],[21.64522098800012,47.011240133000044],[21.654832805000126,47.009948222000006],[21.66175744600011,47.00607249000005],[21.67074914600005,46.99439361600007],[21.671369262000013,46.993360087],[21.667545207000074,46.99237823500003],[21.648528279000118,46.9429755660001],[21.640859344164408,46.93638215255187],[21.64005334400011,46.93568918900003],[21.637277725369177,46.934128688466],[21.635189938488733,46.932954898772564],[21.619871261406303,46.924342475040625],[21.59437137800009,46.91000600200006],[21.589927206000084,46.908869120000034],[21.588686971000044,46.9061819460001],[21.587136678000036,46.89439971900002],[21.58806685400009,46.8822040810001],[21.591477498000103,46.871532899],[21.59178755700009,46.86070668600006],[21.59136343158474,46.8600600256308],[21.583415975000037,46.84794260700009],[21.573080689000108,46.84176727300009],[21.536597128000096,46.83502349900006],[21.518758976073748,46.82354350131838],[21.515719848000117,46.82158762700003],[21.502904094000144,46.80530955100001],[21.481510051000043,46.76497609500005],[21.477065877000115,46.76022186300004],[21.473655232000084,46.75487335300009],[21.47138146900008,46.74903391500003],[21.470451294000043,46.74301361100008],[21.47262170400012,46.74019724600002],[21.47520552600011,46.73784596800006],[21.478202759000027,46.73593394000004],[21.505177856000074,46.72324737600009],[21.501767212000033,46.70350697900004],[21.48620614831237,46.68754804625401],[21.483577108000105,46.68485178600007],[21.46352665200004,46.677048645000056],[21.443897273791883,46.67466932625496],[21.436241495000047,46.67374135300004],[21.425492797000118,46.66201080300006],[21.42353891400009,46.65823096900006],[21.41681115700007,46.6452159630001],[21.396515237994944,46.62678807730366],[21.396037231000008,46.626354066000076],[21.374436483000125,46.61844757100003],[21.337642863000042,46.62041127500005],[21.316248820000027,46.616638896000026],[21.300952596000087,46.60392649400008],[21.295268188000136,46.58503875800004],[21.29183695218402,46.55156163571872],[21.291340779000052,46.54672068300003],[21.27893843600009,46.52840138800006],[21.261678508000102,46.513337707000076],[21.24762251800007,46.497473043000056],[21.24514204900001,46.47687998500005],[21.27439091000005,46.43835520500009],[21.28069543400008,46.41639272100012],[21.257544393000074,46.404171245],[21.215169718000055,46.402905172000075],[21.205922526882475,46.400630069472356],[21.19563602700015,46.39809926400007],[21.178789510000087,46.384456686000064],[21.168660929000026,46.36275258500005],[21.1645268150001,46.31825917600007],[21.155948527000078,46.298932190000116],[21.144476359000066,46.283739320000095],[21.13486454200006,46.27852000000006],[21.108077087242105,46.27866198270716],[21.105615682000092,46.27867502900001],[21.09920780400006,46.27634958900008],[21.062363070502617,46.24528676744263],[21.051458781000093,46.23609364900004],[21.03347538200009,46.23133941700006],[21.0139416910001,46.24306996700004],[21.007017049000098,46.2488577270001],[20.99916223200009,46.25159657800005],[20.990583944000036,46.25159657800005],[20.981488891000083,46.2488577270001]],[[21.0244,46.2657],[21.036172623558766,46.25936970850003],[21.062363070502617,46.24528676744263],[21.0244,46.2657]],[[20.90598153525131,46.27030804708128],[20.9222,46.2618],[20.8734,46.2874],[20.90598153525131,46.27030804708128]]]}},{"type":"Feature","properties":{"prefix":"6","country":"HU","source":"Eurostat GISCO LAU 2024 + Magyar Posta Partner Extra","area_km2":12731.52},"geometry":{"type":"Polygon","coordinates":[[[18.81779667200007,45.905467835000096],[18.816510475428995,45.9062807111446],[18.8178,45.9116],[18.8213,45.9144],[18.8047,45.9321],[18.856,45.9431],[18.8256,45.9574],[18.8389,45.9841],[18.8683,46.0208],[18.8446,46.0384],[18.8073,46.0241],[18.7434,46.0293],[18.7328,46.0451],[18.77,46.0944],[18.8023,46.1088],[18.8193,46.1091],[18.8377,46.1418],[18.8438,46.182],[18.8655,46.2048],[18.831,46.2186],[18.8646,46.2332],[18.8648,46.2588],[18.9124,46.2738],[18.9175,46.2902],[18.9152,46.3189],[18.8978,46.3381],[18.8934,46.3608],[18.8933,46.3691],[18.8853,46.4029],[18.9161,46.4428],[18.9172,46.491],[18.8955,46.5317],[18.8969,46.5501],[18.8841,46.5752],[18.8595,46.6031],[18.8773,46.6305],[18.917,46.639],[18.9558,46.6485],[18.9988,46.6876],[19.0062,46.7049],[18.9836,46.7403],[18.9709,46.7642],[18.9506,46.8014],[18.928,46.8156],[18.9244,46.8396],[18.9251,46.8572],[18.9262,46.865],[18.9343,46.8785],[18.9463,46.8898],[18.9583,46.906],[18.9655,46.9367],[18.9507,46.9962],[18.9571,47.0029],[18.9659,47.029],[18.9564,47.064],[19.0183,47.0541],[19.0685,47.0354],[19.0875,47.0434],[19.0933,47.0448],[19.101,47.0647],[19.1321,47.0721],[19.164,47.0956],[19.2088,47.0889],[19.2368,47.1308],[19.269,47.1341],[19.3119,47.1204],[19.3344,47.1026],[19.3478,47.0932],[19.314,47.0668],[19.2953,47.0359],[19.3192,47.0127],[19.333,47.0269],[19.3858,47.0381],[19.4292,47.0636],[19.4744,47.055],[19.4911,47.0883],[19.5071,47.1187],[19.5614,47.1073],[19.5872,47.1209],[19.6239,47.0748],[19.6368,47.038],[19.6823,46.9992],[19.7798,46.9487],[19.8277,46.9449],[19.8439,46.948],[19.8766,46.9979],[19.9322,46.9732],[19.9836,46.9628],[19.9827,46.983],[20.0265,47.0073],[20.0701,47.0187],[20.0947,47.0074],[20.1391,46.9837],[20.1318,46.9609],[20.1596,46.919],[20.1233,46.8975],[20.0856,46.8745],[20.1147,46.8426],[20.0432,46.8369],[20.0037,46.8221],[20.0338,46.7969],[20.0612,46.8064],[20.0817,46.7877],[20.1344,46.7724],[20.1752,46.7545],[20.2082,46.7823],[20.2308,46.7986],[20.2648,46.7922],[20.2907,46.7675],[20.3356,46.7631],[20.3523,46.7841],[20.403,46.7885],[20.4247,46.7991],[20.4243,46.8035],[20.4535,46.8113],[20.4849,46.7923],[20.5218,46.773],[20.5628,46.776],[20.5959,46.7596],[20.5846,46.7309],[20.59,46.6812],[20.5754,46.6647],[20.5767,46.6317],[20.579,46.5682],[20.6106,46.537],[20.6094,46.5136],[20.6002,46.48],[20.6051,46.4542],[20.5825,46.4425],[20.5829,46.4082],[20.5489,46.3913],[20.596,46.3599],[20.6827,46.3511],[20.684,46.3546],[20.6932,46.3791],[20.7378,46.3836],[20.7543,46.3602],[20.7616,46.3446],[20.7487,46.2902],[20.7756,46.2759],[20.7496,46.2505],[20.75867922917326,46.25936970850003],[20.77728654829559,46.25936970850003],[20.73933313000009,46.237488913000035],[20.73499231000011,46.2319078580001],[20.73550907400005,46.222502747000036],[20.74481083200007,46.200281881000095],[20.744707479000056,46.19227203400003],[20.736645955000142,46.18669097900003],[20.727137492000054,46.1877245080001],[20.717926448916888,46.18997609624322],[20.717835734000033,46.18999827100002],[20.710290975000078,46.188086243],[20.705330037000124,46.18064483700006],[20.70436755600008,46.16852631600004],[20.704193156000116,46.16633046500009],[20.698818807000066,46.15646026600011],[20.683522583000098,46.1446780400001],[20.663988892000106,46.1377533980001],[20.63427668994902,46.1333999619622],[20.62487892576064,46.13202300022699],[20.607558227000084,46.12948516900006],[20.600116821000142,46.12964019800002],[20.588024536000148,46.13284413700008],[20.57810266100006,46.13754669200007],[20.54895715300006,46.15615020800003],[20.50937300600009,46.16767405200004],[20.493720008989527,46.170150792050336],[20.468548625000096,46.17413360600001],[20.44447355735108,46.14725318066606],[20.44415734900008,46.146900126000006],[20.286470394159437,46.143861841661106],[20.283236938000044,46.143799540000074],[20.24282596900008,46.10809112600005],[20.18846236100009,46.14038889600003],[20.17047896400001,46.14550486200004],[20.145364217000093,46.137081604000045],[20.13802616400011,46.13646148700006],[20.130378051000037,46.13935536800007],[20.120146118000036,46.14922556600003],[20.114771769000072,46.15222279900006],[20.09844201700014,46.15496165000009],[20.088623495000064,46.15413482700008],[20.06340539600012,46.145298157000056],[20.05481037781903,46.144594928407486],[20.0349833570001,46.14297271800005],[19.993125447000125,46.159405823],[19.929150024000137,46.16353993800003],[19.889968695877574,46.1575469065006],[19.888945760000126,46.15739044200005],[19.873648872000103,46.15299238600004],[19.804135892665652,46.133006493486285],[19.79045048000006,46.12907175800005],[19.772983846000102,46.13155222600004],[19.711888678000065,46.15870986600008],[19.690094848000086,46.168397522000035],[19.669320923000043,46.17310007700003],[19.6478235270001,46.17387522400013],[19.63488278527522,46.17211371737633],[19.624136254092804,46.170650888872125],[19.589739217000044,46.165968730000074],[19.568448527000044,46.1664338180001],[19.5499483640001,46.164160055000096],[19.526119535850874,46.15668238922252],[19.5252470290001,46.15640859000008],[19.50199263500008,46.14560821500005],[19.487523234000065,46.13423940100007],[19.489280233000045,46.126022848000034],[19.496721639000043,46.11687612000004],[19.499305461000063,46.1086078900001],[19.475649161999232,46.09970199027681],[19.472950480000094,46.098686016],[19.472763451395274,46.09850723864112],[19.46592248500008,46.09196807900007],[19.4608581950001,46.084474996000054],[19.45372684700007,46.07755035500007],[19.436880330000093,46.06799021400006],[19.428302043000144,46.065509746000075],[19.417243286000144,46.06432118800008],[19.404737590000053,46.06023875000007],[19.396572713000126,46.0515571080001],[19.389131307000127,46.04153188100007],[19.38390275844451,46.037518046266555],[19.378899373000138,46.03367706400003],[19.36215620900009,46.02964630100006],[19.32515588400014,46.02949127300009],[19.30696577900008,46.02664906900013],[19.298404618355132,46.02216990450349],[19.298314567000062,46.02212279000007],[19.286915324000063,46.016158753000084],[19.27947391800012,46.003808086000035],[19.276564210664855,45.996178186932305],[19.27482303900007,45.99161244800011],[19.263454223000082,45.981432190000035],[19.23565230300011,45.977711487000036],[19.1480090740001,45.98406768800005],[19.125788208000074,45.99311106400002],[19.125788208000074,45.99326609300006],[19.111008748000046,46.01295481400011],[19.088477824000023,46.0188459270001],[19.082229134196194,46.016996539019225],[19.06543013500007,46.01202463800006],[19.04972050000009,45.99311106400002],[19.048583618000094,45.96344879200005],[19.0394173340837,45.961679859688616],[19.030910279000096,45.96003814700005],[19.00558882700011,45.96257029300001],[18.981817668000133,45.9507880660001],[18.9787170810001,45.94717071600003],[18.977683553000134,45.94350168900003],[18.978820434000028,45.93978098600003],[18.986321467647993,45.931418348573835],[18.9864685470001,45.93125437500002],[18.988742310000134,45.927016907000066],[18.987502076000084,45.923812969],[18.981817668000133,45.921849264000045],[18.965386089987664,45.92708960507264],[18.962697388000066,45.92794708300001],[18.94298120417852,45.928992638119944],[18.90130578600008,45.93120269800001],[18.90065498634537,45.93116856517085],[18.88652632700007,45.9304275520001],[18.876604452000066,45.92241770500003],[18.865442342000023,45.91807688400003],[18.84539188700009,45.913942770000105],[18.843145154515593,45.91286025342622],[18.828338664000057,45.905726217000066],[18.82245067200003,45.90558190400013],[18.81779667200007,45.905467835000096]]]}},{"type":"Feature","properties":{"prefix":"7","country":"HU","source":"Eurostat GISCO LAU 2024 + Magyar Posta Partner Extra","area_km2":11670.78},"geometry":{"type":"Polygon","coordinates":[[[17.0504,46.2038],[17.0469,46.2053],[17.0645,46.2159],[17.1239,46.217],[17.148,46.2456],[17.1853,46.2438],[17.2247,46.2166],[17.2591,46.2321],[17.2377,46.2388],[17.237,46.2827],[17.224,46.3136],[17.2037,46.326],[17.1752,46.3143],[17.1759,46.3292],[17.1772,46.3497],[17.1963,46.3501],[17.2436,46.3534],[17.2496,46.3489],[17.2828,46.3426],[17.31,46.3684],[17.317,46.3922],[17.4134,46.3786],[17.4517,46.3779],[17.4678,46.4201],[17.4594,46.4527],[17.5197,46.4737],[17.5219,46.4981],[17.5364,46.5019],[17.5444,46.4765],[17.5649,46.4777],[17.602,46.489],[17.6232,46.4891],[17.6307,46.4963],[17.6395,46.5327],[17.6644,46.5437],[17.7039,46.5362],[17.7305,46.5416],[17.7408,46.5595],[17.7349,46.5814],[17.7409,46.5835],[17.7892,46.5847],[17.8147,46.6056],[17.7987,46.6499],[17.7999,46.6505],[17.8408,46.6374],[17.8538,46.6314],[17.9005,46.6297],[17.9096,46.614],[17.9303,46.6176],[17.9425,46.6208],[17.9965,46.62],[17.9903,46.6321],[18.0202,46.6286],[18.0363,46.6354],[18.0706,46.6212],[18.1074,46.6494],[18.1015,46.6576],[18.1304,46.6778],[18.13,46.7051],[18.1138,46.7302],[18.1374,46.7423],[18.1719,46.7449],[18.1659,46.7668],[18.2109,46.7782],[18.2515,46.7843],[18.3039,46.8173],[18.3094,46.8011],[18.3381,46.7867],[18.3652,46.775],[18.4082,46.8035],[18.3862,46.8195],[18.4233,46.8458],[18.5014,46.8611],[18.4603,46.9141],[18.4854,46.9055],[18.5318,46.9285],[18.563,46.914],[18.5872,46.9314],[18.631,46.9451],[18.6511,46.932],[18.706,46.9474],[18.7086,46.8981],[18.7211,46.8785],[18.7544,46.8377],[18.7622,46.8261],[18.7949,46.7875],[18.8354,46.8047],[18.8667,46.8316],[18.8882,46.8562],[18.9251,46.8572],[18.9244,46.8396],[18.928,46.8156],[18.9506,46.8014],[18.9709,46.7642],[18.9836,46.7403],[19.0062,46.7049],[18.9988,46.6876],[18.9558,46.6485],[18.917,46.639],[18.8773,46.6305],[18.8595,46.6031],[18.8841,46.5752],[18.8969,46.5501],[18.8955,46.5317],[18.9172,46.491],[18.9161,46.4428],[18.8853,46.4029],[18.8933,46.3691],[18.8934,46.3608],[18.8978,46.3381],[18.9152,46.3189],[18.9175,46.2902],[18.9124,46.2738],[18.8648,46.2588],[18.8646,46.2332],[18.831,46.2186],[18.8655,46.2048],[18.8438,46.182],[18.8377,46.1418],[18.8193,46.1091],[18.8023,46.1088],[18.77,46.0944],[18.7328,46.0451],[18.7434,46.0293],[18.8073,46.0241],[18.8446,46.0384],[18.8683,46.0208],[18.8389,45.9841],[18.8256,45.9574],[18.856,45.9431],[18.8047,45.9321],[18.8213,45.9144],[18.8178,45.9116],[18.816510475428995,45.9062807111446],[18.804877563000076,45.913632711000034],[18.794852336000133,45.90303904200006],[18.790408162000034,45.89389231400007],[18.785963989000038,45.88691599600007],[18.77783104209602,45.88373528828271],[18.775525350000095,45.88283355700007],[18.763329712000086,45.883970439000066],[18.723848918000073,45.898439839999995],[18.6743428960001,45.91037709600003],[18.65572171705308,45.90759935049682],[18.655636027000128,45.90758656800007],[18.633001750000062,45.89192861000002],[18.629281046000074,45.886864319000054],[18.626283813000043,45.87482371099999],[18.623596639000112,45.86867421500001],[18.62214969900012,45.86841583300004],[18.60737023900012,45.85668528200004],[18.58545943200005,45.82691965800005],[18.57347049900011,45.81668772400009],[18.530269002000068,45.79084950800005],[18.51314534839528,45.786364741470145],[18.504224081000075,45.78402821900001],[18.488711949414743,45.78913935916893],[18.481796509000077,45.791417949000035],[18.46546675600007,45.78371816000002],[18.430740194000123,45.75364247700004],[18.411723267000042,45.743203837000024],[18.40438521300007,45.741808574000046],[18.39756392400011,45.74134348600002],[18.390742635000066,45.741808574000046],[18.38412805200005,45.743100484000095],[18.383817993000065,45.743203837000024],[18.367178182000146,45.758190002999996],[18.351158488000095,45.75839670900005],[18.334932088000073,45.751988831000105],[18.317672160000086,45.74728627500012],[18.30051558400004,45.751833802000064],[18.283255655000062,45.76490793900011],[18.260518026000057,45.765114644000064],[18.229822225000134,45.78123769200006],[18.211218709000065,45.78537180600007],[18.194547188196722,45.78537180600007],[18.132860666041257,45.78537180600007],[18.128949829000106,45.78537180600007],[18.12016483500014,45.78340810200005],[18.10290490700004,45.77462310800006],[18.092052856000095,45.77172922800007],[18.08047733500004,45.77172922800007],[18.00286268248229,45.78680188615756],[17.9753674720001,45.7921414180001],[17.959258692418324,45.7921414180001],[17.906234389000133,45.7921414180001],[17.889791300000127,45.7921414180001],[17.880489542000106,45.78852406800003],[17.875735311000113,45.780669251000106],[17.870050903000077,45.77348622600006],[17.858061971000012,45.77172922800007],[17.857958618000083,45.775863341999994],[17.83821822100012,45.79963450100006],[17.825064764802406,45.80632825288369],[17.81918389463911,45.809321008942725],[17.809176066000134,45.81441396100006],[17.687323038000045,45.84061391300007],[17.664688761000065,45.84164744100006],[17.65652388500007,45.84541982000009],[17.656134607042112,45.84682486991313],[17.654669375000083,45.85211344100004],[17.653216593000053,45.85735707600013],[17.652079712000045,45.868829244000054],[17.646912069000052,45.883712057000096],[17.64577518700014,45.891825256000104],[17.638437134000128,45.90133372000007],[17.59110152100007,45.93621531200007],[17.55430790200009,45.94779083200011],[17.51193322800006,45.95394032800009],[17.42666711400011,45.95673085500003],[17.4181921790001,45.95301015200003],[17.415401652000128,45.949702860000016],[17.411577596000114,45.946602275000075],[17.406203247000036,45.94365671800007],[17.399692017000064,45.959934794000006],[17.389150024000116,45.96308705700007],[17.36527551200004,45.95673085500003],[17.345328410000093,45.95569732700007],[17.34212447100012,45.95864288300005],[17.34367476400007,45.96753123000006],[17.337887003000077,45.98463612900012],[17.32713830600005,45.97202707999999],[17.316596314000094,45.973784078000065],[17.306613213000105,45.979914052000126],[17.304814087000096,45.981018778000035],[17.29013798000011,45.98463612900012],[17.29013798000011,45.99145741800008],[17.29695927000006,45.99264597600008],[17.309361613000135,45.996625061000074],[17.316803019000048,45.99765859000006],[17.3078113200001,46.00639190700012],[17.291481567000062,46.007942200000045],[17.27587528500004,46.01202463800006],[17.268950643000068,46.02871612600008],[17.267780286503605,46.03367741945853],[17.266573527000105,46.038793030000036],[17.25406783000011,46.07083241800005],[17.248590128000018,46.080237529],[17.208592570000064,46.11656606000007],[17.19732710800008,46.121165263000094],[17.124401478315598,46.12293034154464],[17.122363637969684,46.122979665058025],[17.116195109000046,46.123128967000056],[17.101208943000074,46.128193258000024],[17.062794400458934,46.148305368608334],[17.052943156000055,46.153463032999994],[17.0412642820001,46.16219635100005],[17.036303344000146,46.17299672500009],[17.028035116000098,46.18048980800005],[17.02077569490494,46.18459173317993],[17.062794400458934,46.18459173317993],[17.062794400458934,46.20258337173409],[17.0504,46.2038]],[[17.122363637969684,46.17131685202346],[17.1269,46.1688],[17.0667,46.2022],[17.098437055765512,46.18459173317993],[17.122363637969684,46.17131685202346]],[[17.1407,46.1726],[17.1658166886997,46.15306479767801],[17.1812,46.1411],[17.1407,46.1726]]]}},{"type":"Feature","properties":{"prefix":"8","country":"HU","source":"Eurostat GISCO LAU 2024 + Magyar Posta Partner Extra","area_km2":13531.46},"geometry":{"type":"Polygon","coordinates":[[[16.38246934265997,46.694468900619476],[16.38246934265997,46.700239583498174],[16.3708,46.7222],[16.3927,46.7425],[16.3835,46.7583],[16.4058,46.7718],[16.3618,46.7802],[16.3807,46.7852],[16.4118,46.7866],[16.44,46.776],[16.4407,46.7765],[16.4634,46.7866],[16.466,46.7868],[16.505,46.8083],[16.5044,46.8096],[16.5218,46.8389],[16.5232,46.8388],[16.5379,46.8414],[16.5514,46.8373],[16.5672,46.8677],[16.5913,46.8904],[16.6147,46.9078],[16.6236,46.9155],[16.6303,46.9254],[16.651,46.9207],[16.6819,46.9339],[16.7006,46.9286],[16.7061,46.93],[16.7334,46.9311],[16.7359,46.9329],[16.7373,46.9327],[16.7601,46.9287],[16.777,46.9251],[16.7865,46.9319],[16.7861,46.9474],[16.8138,46.949],[16.8189,46.9754],[16.8195,46.9754],[16.8471,46.9702],[16.9085,46.9725],[16.9231,46.9615],[16.9687,46.9616],[16.99,46.9709],[16.9847,46.9805],[17.0201,46.9951],[17.0103,47.0191],[17.0154,47.0421],[17.0374,47.0412],[17.0447,47.0245],[17.0737,47.025],[17.0745,47.0487],[17.0761,47.0654],[17.1332,47.075],[17.1446,47.0796],[17.1592,47.0716],[17.1593,47.0716],[17.1952,47.0666],[17.2136,47.081],[17.2162,47.0839],[17.2124,47.1034],[17.2216,47.1138],[17.2002,47.1369],[17.1957,47.1664],[17.2003,47.1673],[17.2088,47.1982],[17.2134,47.208],[17.2065,47.2136],[17.2092,47.2138],[17.2086,47.2336],[17.1991,47.259],[17.2571,47.2672],[17.2711,47.2565],[17.2804,47.2453],[17.281,47.2441],[17.317,47.2473],[17.3279,47.2682],[17.3314,47.2921],[17.2964,47.2986],[17.2956,47.3287],[17.2954,47.329],[17.225,47.3571],[17.1897,47.3806],[17.2082,47.3923],[17.1948,47.3968],[17.1724,47.4325],[17.2351,47.4398],[17.2521,47.4338],[17.2726,47.4335],[17.2954,47.4298],[17.3345,47.4399],[17.3475,47.4423],[17.3644,47.4453],[17.3655,47.4463],[17.3888,47.4857],[17.4226,47.4781],[17.4438,47.4506],[17.4442,47.4314],[17.4821,47.4226],[17.5077,47.4409],[17.526,47.4687],[17.5582,47.4413],[17.5883,47.469],[17.644,47.4526],[17.6628,47.4665],[17.6818,47.4664],[17.7036,47.4495],[17.7375,47.4729],[17.7542,47.4564],[17.7594,47.4492],[17.8055,47.457],[17.8127,47.4497],[17.8405,47.4422],[17.869,47.457],[17.8703,47.4579],[17.8851,47.4484],[17.8932,47.4296],[17.8764,47.4017],[17.8839,47.3896],[17.9487,47.3789],[17.9269,47.3627],[17.9612,47.3477],[17.9612,47.3335],[17.9626,47.333],[18.029,47.3341],[18.0357,47.3343],[18.0534,47.3512],[18.0878,47.3585],[18.08,47.3742],[18.0918,47.3907],[18.1108,47.4068],[18.1182,47.4453],[18.1793,47.4446],[18.1885,47.4763],[18.2398,47.4582],[18.2453,47.4367],[18.3116,47.3991],[18.3724,47.4177],[18.351,47.4396],[18.3779,47.4602],[18.399,47.452],[18.4276,47.4859],[18.4295,47.4854],[18.463,47.4605],[18.5043,47.4602],[18.5473,47.4533],[18.5542,47.4758],[18.5672,47.4792],[18.5849,47.4717],[18.608,47.4756],[18.635,47.4497],[18.6941,47.4619],[18.6906,47.4406],[18.7257,47.4128],[18.7096,47.3881],[18.6814,47.4047],[18.6238,47.3675],[18.6262,47.3489],[18.5859,47.3355],[18.6075,47.297],[18.6077,47.2786],[18.6473,47.2661],[18.6434,47.2577],[18.6176,47.2486],[18.6318,47.2274],[18.591,47.2049],[18.538,47.17],[18.5537,47.1494],[18.6049,47.1647],[18.6359,47.1395],[18.7004,47.1248],[18.6572,47.1118],[18.6613,47.0759],[18.5827,47.0535],[18.5931,47.0369],[18.6388,47.0013],[18.6128,46.9921],[18.631,46.9451],[18.5872,46.9314],[18.563,46.914],[18.5318,46.9285],[18.4854,46.9055],[18.4603,46.9141],[18.5014,46.8611],[18.4233,46.8458],[18.3862,46.8195],[18.4082,46.8035],[18.3652,46.775],[18.3381,46.7867],[18.3094,46.8011],[18.3039,46.8173],[18.2515,46.7843],[18.2109,46.7782],[18.1659,46.7668],[18.1719,46.7449],[18.1374,46.7423],[18.1138,46.7302],[18.13,46.7051],[18.1304,46.6778],[18.1015,46.6576],[18.1074,46.6494],[18.0706,46.6212],[18.0363,46.6354],[18.0202,46.6286],[17.9903,46.6321],[17.9965,46.62],[17.9425,46.6208],[17.9303,46.6176],[17.9096,46.614],[17.9005,46.6297],[17.8538,46.6314],[17.8408,46.6374],[17.7999,46.6505],[17.7987,46.6499],[17.8147,46.6056],[17.7892,46.5847],[17.7409,46.5835],[17.7349,46.5814],[17.7408,46.5595],[17.7305,46.5416],[17.7039,46.5362],[17.6644,46.5437],[17.6395,46.5327],[17.6307,46.4963],[17.6232,46.4891],[17.602,46.489],[17.5649,46.4777],[17.5444,46.4765],[17.5364,46.5019],[17.5219,46.4981],[17.5197,46.4737],[17.4594,46.4527],[17.4678,46.4201],[17.4517,46.3779],[17.4134,46.3786],[17.317,46.3922],[17.31,46.3684],[17.2828,46.3426],[17.2496,46.3489],[17.2436,46.3534],[17.1963,46.3501],[17.1772,46.3497],[17.1759,46.3292],[17.1752,46.3143],[17.2037,46.326],[17.224,46.3136],[17.237,46.2827],[17.2377,46.2388],[17.2591,46.2321],[17.2247,46.2166],[17.1853,46.2438],[17.148,46.2456],[17.1239,46.217],[17.0645,46.2159],[17.0469,46.2053],[17.0504,46.2038],[17.062794400458934,46.20258337173409],[17.062794400458934,46.18459173317993],[17.02077569490494,46.18459173317993],[16.974808390000135,46.21056549100011],[16.965299926000057,46.21945383700002],[16.940701945000058,46.25149322600002],[16.903288208000106,46.2819306440001],[16.89605350700012,46.28627146400008],[16.889232218000075,46.29216257800006],[16.879311877000134,46.312061961000055],[16.87176558400003,46.32719919900008],[16.87436561814956,46.339508734448316],[16.875072876000047,46.34285715800006],[16.865461060000115,46.35913523400008],[16.859410685000086,46.36475790900006],[16.850474894000058,46.37306203200005],[16.837659139000067,46.381872864000044],[16.83238814300003,46.38192454100006],[16.83021773200005,46.37735117600003],[16.82753055800012,46.37401804600002],[16.820915975000105,46.37810048500002],[16.816575154000134,46.38197621700009],[16.81233768700008,46.385025127000105],[16.807893514000085,46.38735056600005],[16.80344934100006,46.38869415300009],[16.776474243000052,46.39287994400003],[16.769342895000108,46.396109721000116],[16.76190148900008,46.381872864000044],[16.755080200000123,46.381872864000044],[16.751856066012525,46.38656561822006],[16.742884562000114,46.39962371800006],[16.712395467000135,46.41267201800012],[16.69358524600011,46.42962188800003],[16.677462199000047,46.44869049100002],[16.65927209500009,46.46419342100002],[16.637671346000047,46.474477031000006],[16.611109660000096,46.47806854200009],[16.602117960000072,46.482047628000075],[16.59426314300012,46.4829778040001],[16.58806197100006,46.4795671590001],[16.583721151000077,46.47065297500008],[16.577623332000115,46.47065297500008],[16.56429081200008,46.47992889400008],[16.52108931500007,46.49853241000004],[16.515301554000075,46.50171051000011],[16.500832153000147,46.54480865500001],[16.46713911900008,46.564704082000034],[16.460296015522168,46.57206473125006],[16.430242147000058,46.604391582000105],[16.39458540800007,46.619016012000074],[16.38246934265997,46.625728036697126],[16.37639530400014,46.62909291600003],[16.372245692000064,46.63634126300006],[16.36843713300007,46.642993876000006],[16.377635539000067,46.65286407500007],[16.38246934265997,46.65446001845612],[16.39665246600015,46.65914276200009],[16.40260705700007,46.66310878600005],[16.410501749000105,46.66836700500009],[16.405024048000115,46.68725474100002],[16.39003788200006,46.694153545000106],[16.38246934265997,46.694468900619476]],[[16.4454,46.611],[16.484596643666517,46.5825668791181],[16.49907444050867,46.57206473125006],[16.5084,46.5653],[16.4454,46.611]]]}},{"type":"Feature","properties":{"prefix":"9","country":"HU","source":"Eurostat GISCO LAU 2024 + Magyar Posta Partner Extra","area_km2":7662.3},"geometry":{"type":"Polygon","coordinates":[[[16.64087528400009,47.45291860000005],[16.636844523000093,47.493200378],[16.64821333900008,47.50154612200008],[16.677358846000118,47.50986602800005],[16.682474628201042,47.516],[16.68800419100009,47.5226301070001],[16.689141072000012,47.538029683999994],[16.681389608000103,47.55056121900007],[16.66754032400013,47.560095521000065],[16.650590454000053,47.56655507400005],[16.656171509000046,47.585933737000104],[16.647696574000065,47.60613922099999],[16.630229940000106,47.62200388600009],[16.61915674453618,47.62544130001291],[16.619146795136974,47.62544438857071],[16.60842248600008,47.62877349900005],[16.575452921000107,47.624949443000006],[16.509617147000142,47.64313954700005],[16.48191857900011,47.63895375600002],[16.425901326000087,47.65427581800007],[16.40781457500009,47.66132965100009],[16.416599568000066,47.66882273400002],[16.431792440000095,47.68546254500005],[16.43913049300008,47.69047515900009],[16.444918254000072,47.685540060000065],[16.449879191000093,47.68241363500003],[16.45453007000006,47.68176768000005],[16.461144653000076,47.6845323700001],[16.4730302320001,47.69176707000007],[16.51292443800014,47.706003927000026],[16.521399373000122,47.71153330500003],[16.52687707500013,47.720137431000055],[16.525120076000064,47.73331492100006],[16.53111454200007,47.74297841500008],[16.54758423868146,47.74801211051845],[16.562398136097222,47.7525397378618],[16.56780481000004,47.75419220000002],[16.60976607300006,47.75062652600006],[16.689864543000112,47.72956838000003],[16.702473592000047,47.723599752],[16.707847941000097,47.71460805300005],[16.711568644000096,47.704066061000006],[16.719216756000094,47.69373077400009],[16.73037886600011,47.68590179500005],[16.741127564000124,47.68145762200005],[16.79745487400004,47.67546315600002],[16.80623986800012,47.676884257000026],[16.81729862500012,47.68424814900003],[16.83693566900007,47.705357971000055],[16.850164836000147,47.712928569],[16.86473758900013,47.68672861700007],[16.902668091000123,47.68202606200002],[16.98193973800008,47.69543609600005],[17.054803508000077,47.70202484200006],[17.075370728000053,47.70848439600009],[17.064001912000066,47.71329030400001],[17.055526977000056,47.72091257800007],[17.05056604000012,47.73098948200003],[17.048705689000116,47.76364898700008],[17.041987752000097,47.78390614900009],[17.040644165000117,47.80111440000006],[17.0556303300001,47.81235402500003],[17.04911910000004,47.81868438800005],[17.03950728300012,47.83736541800003],[17.031652466000082,47.841344504000105],[17.010671834000078,47.84788157200008],[17.004367310000077,47.8523774210001],[17.00407343913774,47.86271186591642],[17.00405725100009,47.86328114800007],[17.016562948000086,47.86769948300007],[17.051186157000075,47.87289296500008],[17.06761926200005,47.881626282000056],[17.07754113800013,47.89172902500009],[17.083328898000104,47.90482900000005],[17.087463013000047,47.92263153099999],[17.08539595500008,47.92462107400003],[17.080124959000045,47.92575795500004],[17.07516402200011,47.92777333600007],[17.074130493000013,47.93211415700007],[17.076817668000047,47.934956360000044],[17.086119426000067,47.939219666],[17.088083130000115,47.94089915000005],[17.09087365700006,47.94947743800007],[17.095731242000085,47.955730286000076],[17.096144653000096,47.96193145800005],[17.085602661000053,47.97014801100009],[17.148337850000075,48.005443013999994],[17.184821411000087,48.02027415000002],[17.21098243348701,48.01648867221105],[17.220891560000098,48.015054830000096],[17.24777854607545,48.010010166119606],[17.262316384000115,48.007282508000046],[17.272671346000067,48.005339661000065],[17.337887003000077,47.99872507700006],[17.36940962800014,47.9812067670001],[17.472039022000047,47.8888093070001],[17.481857544000093,47.88271148800003],[17.492192830000107,47.87981760700005],[17.51730757600012,47.87625193300009],[17.526609334000057,47.87211781800006],[17.560405721000052,47.83798553500007],[17.572601359000146,47.82953643800009],[17.582936646000064,47.82979482100005],[17.592961873000093,47.83310211200005],[17.604227335000132,47.834238993000056],[17.608558807416962,47.83278012934668],[17.61911014800009,47.829226380000094],[17.639884074000122,47.819201152000076],[17.658384236000074,47.807315573000054],[17.6662390540001,47.797031963000066],[17.676677693000045,47.78917714500004],[17.68501400052917,47.78614006467334],[17.719244921000097,47.773669069000036],[17.741996704000087,47.76538014800006],[17.788948938087717,47.75675774673433],[17.82571252400004,47.75000640900008],[17.883531848000132,47.75252142500007],[17.969339068758472,47.75625385335215],[17.9451,47.745],[17.8939,47.7395],[17.9016,47.7041],[17.8917,47.6817],[17.899,47.6747],[17.8918,47.6311],[17.9331,47.6162],[17.9119,47.5851],[17.9282,47.5559],[17.9223,47.5436],[17.8867,47.5511],[17.8887,47.5269],[17.9095,47.5059],[17.8881,47.4777],[17.8703,47.4579],[17.869,47.457],[17.8405,47.4422],[17.8127,47.4497],[17.8055,47.457],[17.7594,47.4492],[17.7542,47.4564],[17.7375,47.4729],[17.7036,47.4495],[17.6818,47.4664],[17.6628,47.4665],[17.644,47.4526],[17.5883,47.469],[17.5582,47.4413],[17.526,47.4687],[17.5077,47.4409],[17.4821,47.4226],[17.4442,47.4314],[17.4438,47.4506],[17.4226,47.4781],[17.3888,47.4857],[17.3655,47.4463],[17.3644,47.4453],[17.3475,47.4423],[17.3345,47.4399],[17.2954,47.4298],[17.2726,47.4335],[17.2521,47.4338],[17.2351,47.4398],[17.1724,47.4325],[17.1948,47.3968],[17.2082,47.3923],[17.1897,47.3806],[17.225,47.3571],[17.2954,47.329],[17.2956,47.3287],[17.2964,47.2986],[17.3314,47.2921],[17.3279,47.2682],[17.317,47.2473],[17.281,47.2441],[17.2804,47.2453],[17.2711,47.2565],[17.2571,47.2672],[17.1991,47.259],[17.2086,47.2336],[17.2092,47.2138],[17.2065,47.2136],[17.2134,47.208],[17.2088,47.1982],[17.2003,47.1673],[17.1957,47.1664],[17.2002,47.1369],[17.2216,47.1138],[17.2124,47.1034],[17.2162,47.0839],[17.2136,47.081],[17.1952,47.0666],[17.1593,47.0716],[17.1592,47.0716],[17.1446,47.0796],[17.1332,47.075],[17.0761,47.0654],[17.0745,47.0487],[17.0737,47.025],[17.0447,47.0245],[17.0374,47.0412],[17.0154,47.0421],[17.0103,47.0191],[17.0201,46.9951],[16.9847,46.9805],[16.99,46.9709],[16.9687,46.9616],[16.9231,46.9615],[16.9085,46.9725],[16.8471,46.9702],[16.8195,46.9754],[16.8189,46.9754],[16.8138,46.949],[16.7861,46.9474],[16.7865,46.9319],[16.777,46.9251],[16.7601,46.9287],[16.7373,46.9327],[16.7359,46.9329],[16.7334,46.9311],[16.7061,46.93],[16.7006,46.9286],[16.6819,46.9339],[16.651,46.9207],[16.6303,46.9254],[16.6236,46.9155],[16.6147,46.9078],[16.5913,46.8904],[16.5672,46.8677],[16.5514,46.8373],[16.5379,46.8414],[16.5232,46.8388],[16.5218,46.8389],[16.5044,46.8096],[16.505,46.8083],[16.466,46.7868],[16.4634,46.7866],[16.4407,46.7765],[16.44,46.776],[16.4118,46.7866],[16.3807,46.7852],[16.3618,46.7802],[16.4058,46.7718],[16.3835,46.7583],[16.3927,46.7425],[16.3708,46.7222],[16.38246934265997,46.700239583498174],[16.38246934265997,46.694468900619476],[16.37143436700009,46.6949286910001],[16.3662163730001,46.69646683100008],[16.36538307300006,46.69671246800009],[16.357585082000128,46.69901112900003],[16.357275024000046,46.71583180800009],[16.34342574100009,46.71417816200004],[16.33412398300007,46.72174875899999],[16.32554569500013,46.73327260400002],[16.31417687900003,46.743323670000066],[16.300430949000088,46.77208160500008],[16.298157186000083,46.77580230800008],[16.29948988400014,46.779509942000075],[16.302187948000068,46.78701609300002],[16.311097363000044,46.79751906200006],[16.31490035000013,46.802002259000105],[16.321824992000103,46.81326772100006],[16.327509400000054,46.82546335900007],[16.32978316200007,46.834403382000104],[16.325338989000073,46.839441834000084],[16.310662883000077,46.84001027500004],[16.30187788900008,46.84321421300008],[16.297392209000122,46.84703294300003],[16.282240845000047,46.859931539000044],[16.272008911000086,46.86396230100003],[16.17948639500011,46.85846833900003],[16.16937245544104,46.85786777603836],[16.159246937343184,46.85726652554624],[16.135376424000043,46.85584910100003],[16.130245696000088,46.85670849800009],[16.09403527800012,46.862773743000005],[16.110054972000086,46.86791554800003],[16.122870728000066,46.876364645000095],[16.159147583000106,46.910316061000046],[16.170723104000047,46.91853261300007],[16.191180024742117,46.92880265253223],[16.196147909000075,46.93129669200003],[16.217025187000047,46.937394510999994],[16.223949829000105,46.941063537999995],[16.230667765000135,46.948349915000065],[16.231184530000093,46.95442189500001],[16.230357707000053,46.95997711200003],[16.232941528000055,46.96607493100008],[16.243070109000115,46.972017721],[16.25299198400012,46.973516338000096],[16.2610535070001,46.97808970200005],[16.26539432800007,46.99325673500006],[16.274902791000073,47.00431549100007],[16.288545369000076,47.00558156400011],[16.3258557530001,47.0004397580001],[16.366576782000067,47.003824565000045],[16.387764120000043,47.002041728000066],[16.405024048000115,46.993153382000045],[16.41039839600009,46.9904145310001],[16.415566040000073,46.98943267900002],[16.420423625000097,46.99025950100004],[16.42476444500008,46.9929983520001],[16.42476444500008,46.99310170500003],[16.432396902729568,46.994073539818025],[16.441404256000112,46.99522043899999],[16.467449178000066,46.99542714500005],[16.486362752000105,46.998553569000094],[16.48191857900011,47.00937978100005],[16.46755253100011,47.0184231570001],[16.453289836000124,47.02167877300009],[16.424661092000065,47.024081726000034],[16.43716678800004,47.03178151500005],[16.477406040086414,47.042956503470826],[16.48191857900011,47.04420969700003],[16.493184041000063,47.04914479600005],[16.494147980482897,47.050454764991755],[16.497214803000077,47.05462249800003],[16.493700805000117,47.05981597900005],[16.48191857900011,47.06389841700006],[16.46176477100005,47.068497620000116],[16.454323364000118,47.081700948999995],[16.46083459500008,47.09629954000006],[16.48191857900011,47.1052395630001],[16.504759563000107,47.12583262100007],[16.50951379300011,47.13753733400007],[16.49731815600009,47.149681295000065],[16.480885051000115,47.150766501000064],[16.455380694766287,47.142421037813826],[16.44833075750004,47.1401141773159],[16.447088664000148,47.139707743000045],[16.43365279200009,47.145753886000094],[16.433962850000086,47.15128326500009],[16.4421277270001,47.16833648700005],[16.441817667000123,47.177121480000025],[16.435099732000083,47.183581034000085],[16.426728149000013,47.18412363700013],[16.418769979000047,47.18365855000009],[16.41277551200011,47.18717254600004],[16.409261515000082,47.20368316600003],[16.424661092000065,47.22559397400009],[16.42135380000005,47.24303477000002],[16.42135380000005,47.243138123000065],[16.452463012000095,47.25458445300008],[16.46662235500014,47.26342112300007],[16.47272615896925,47.27577178950007],[16.473236938000042,47.276805319000104],[16.469206177000046,47.29323842400008],[16.44833075750004,47.32300719877939],[16.43882043500011,47.33656911300004],[16.436133260000076,47.338558655000085],[16.431689087000052,47.33972137500011],[16.42714156100004,47.34137502000006],[16.42435103400007,47.34519907700009],[16.42497115000012,47.35111602799999],[16.429311971000118,47.35380320200004],[16.434272908000054,47.3555602010001],[16.436443319000148,47.35850575800002],[16.433962850000086,47.39684967100003],[16.444091430000128,47.40951039700006],[16.44833075750004,47.41029870145954],[16.456597128000027,47.411835836000094],[16.46637889669335,47.407210348836756],[16.469929647000043,47.40553131200009],[16.48191857900011,47.39230214500007],[16.535371796874596,47.408877782384806],[16.589405558000124,47.42563344400004],[16.626973417000045,47.44554893500002],[16.64087528400009,47.45291860000005]],[[16.44833075750004,47.406138428967544],[16.446,47.406],[16.46637889669335,47.407210348836756],[16.44833075750004,47.406138428967544]],[[16.44833075750004,47.38790888226159],[16.4523,47.3571],[16.446,47.406],[16.44833075750004,47.38790888226159]],[[17.486532049112856,47.8747550830598],[17.4738,47.8794],[17.5352,47.857],[17.486532049112856,47.8747550830598]],[[17.608558807416962,47.8140862576363],[17.5724,47.8144],[17.6185,47.814],[17.608558807416962,47.8140862576363]],[[17.6704,47.7836],[17.666063508008346,47.78614006467334],[17.6185,47.814],[17.6704,47.7836]],[[17.1169,47.961],[17.0947,47.9709],[17.10751984224355,47.96518304332382],[17.1169,47.961]],[[17.10751984224355,47.951088173382864],[17.0922,47.9349],[17.1169,47.961],[17.10751984224355,47.951088173382864]],[[16.69459537366548,47.516],[16.6908,47.5115],[16.7145,47.5396],[16.69459537366548,47.516]],[[16.6521,47.6229],[16.6219,47.6262],[16.6249358984373,47.625868262753535],[16.6521,47.6229]],[[16.6462,47.4466],[16.6249358984373,47.43683942879089],[16.5913,47.4214],[16.6462,47.4466]],[[16.44833075750004,47.35100327602268],[16.4633,47.3349],[16.4435,47.3562],[16.44833075750004,47.35100327602268]],[[16.4874,47.2839],[16.482077333124238,47.27577178950007],[16.4671,47.2529],[16.4874,47.2839]],[[16.44833075750004,47.23813076000003],[16.4427,47.2337],[16.4671,47.2529],[16.44833075750004,47.23813076000003]],[[16.280342041653423,46.873580299480096],[16.2914,46.8728],[16.2418,46.8763],[16.280342041653423,46.873580299480096]]]}}]}